AL MUNTHER              
1 63240U 25052AG  26068.64540749  .00017933  00000+0  65015-3 0  9992
2 63240  97.4001 323.9152 0008027 130.7043 229.4895 15.28381521 54798
STARLINK-34266          
1 65093U 25167R   26068.27083789  .00023320  00000+0  79731-3 0  9999
2 65093  53.1616  28.7498 0001431  92.1443 267.9722 15.30187195 33413
